#aV2015  9 19  0  0  0.00000000     288 DD+AD WGS84 FIT  NGA
## 1862 518400.00000000   300.00000000 57284 0.0000000000000
+   31     1  2  3  4  5  6  7  8  9 11 12 13 14 15 16 17 18
+         19 20 21 22 23 24 25 26 27 28 29 30 31 32  0  0  0
+          0  0  0  0  0  0  0  0  0  0  0  0  0  0  0  0  0
+          0  0  0  0  0  0  0  0  0  0  0  0  0  0  0  0  0
+          0  0  0  0  0  0  0  0  0  0  0  0  0  0  0  0  0
++         2  2  2  2  2  2  2  2  2  2  2  2  2  2  2  2  2
++         2  2  2  2  2  2  2  2  2  2  2  2  2  2  0  0  0
++         0  0  0  0  0  0  0  0  0  0  0  0  0  0  0  0  0
++         0  0  0  0  0  0  0  0  0  0  0  0  0  0  0  0  0
++         0  0  0  0  0  0  0  0  0  0  0  0  0  0  0  0  0
%c cc cc ccc ccc cccc cccc cccc cccc ccccc ccccc ccccc ccccc
%c cc cc ccc ccc cccc cccc cccc cccc ccccc ccccc ccccc ccccc
%f  0.0000000  0.000000000  0.00000000000  0.000000000000000
%f  0.0000000  0.000000000  0.00000000000  0.000000000000000
%i    0    0    0    0      0      0      0      0         0
%i    0    0    0    0      0      0      0      0         0
/*      NGA, ST. LOUIS,MO.                                  
/*   EPHEMERIS COMPUTED FROM  1 DAYS OF DATA                
/*   EPOCHA SMOOTHER                                       
/* CCCCCCCCCCCCCCCCCCCCCCCCCCCCCCCCCCCCCCCCCCCCCCCCCCCCCCCCC
*  2015  9 19 15 15  0.00000000
P  1  14266.127165  -5544.550995  21622.099708      0.783533                    
V  1   5512.056371  27079.931889   3493.347692      0.007226                    
P  2 -13999.218216 -18413.631841 -13047.927315    589.554999                    
V  2  -1380.454270 -17201.998125  24589.200255      0.015838                    
P  3  22331.871176 -11837.581756   8208.154226     21.155837                    
V  3  -6117.952905   8818.886150  29370.655643      0.003776                    
P  4  16148.775144   5193.639753  20147.234733    -22.401112                    
V  4   4521.738871  26006.910771  -9897.568069     -0.042523                    
P  5 -15515.155218  -6199.735800 -20742.857166   -193.812541                    
V  5  19074.956089 -18002.107025  -8719.992510      0.040478                    
P  6  -7515.079297 -25228.198047  -3561.458601     61.094258                    
V  6   1793.462283  -4960.780008  31364.555808      0.073126                    
P  7   7292.801092 -20101.077363 -15375.036670    484.517763                    
V  7   5405.501537  19250.361465 -22804.930409     -0.006730                    
P  8  25517.929147   4080.352627   6141.415939     -5.815234                    
V  8   6466.506308   5065.175890 -30462.938809     -0.013766                    
P  9  12622.239417 -11073.162170 -20588.546213     -8.624767                    
V  9  24476.839355   9226.017944  10031.028492      0.019754                    
P 11  17477.010564  -1295.862447  19428.715596   -605.166240                    
V 11  12263.733920  23144.743035  -9138.608839     -0.023575                    
P 12 -22500.494567   8971.467816  10535.905146    329.532712                    
V 12   9509.465934  -9852.609673  28615.284528      0.034245                    
P 13 -22985.465116 -12930.460708  -2732.064735   -150.361785                    
V 13   4063.720507   -841.289514 -31846.114612     -0.029376                    
P 14   4420.530257  17082.330903  20151.651923     33.652467                    
V 14 -23309.410113  -9006.042757  12760.368197     -0.025988                    
P 15 -25835.780153  -2525.764924   6296.206810   -272.430994                    
V 15  -6861.903160  -5385.216328 -29526.284521     -0.020369                    
P 16  14416.111149   6678.786020 -21434.253314    -84.939660                    
V 16 -21188.957582  16522.498623  -8781.565380      0.039445                    
P 17  -5699.320822 -16899.809616  20051.077062   -188.221893                    
V 17  23297.738312   8246.108518  13574.179262     -0.012294                    
P 18 -13462.586745  21200.030279   8699.764866    435.411282                    
V 18 -10259.339675   4353.726477 -28417.160313      0.032861                    
P 19  23050.859415    360.662723  13373.743176   -520.325904                    
V 19  14907.963017   8641.008626 -25082.181015     -0.005486                    
P 20 -21901.484083   9798.516475 -11630.596134    356.552842                    
V 20   7978.538562 -12613.145814 -25911.116675      0.030704                    
P 21  -4246.073135  22700.349310 -12114.323030   -480.864714                    
V 21  -6876.409049 -15585.800854 -25657.323154     -0.027518                    
P 22  -1713.430065  19788.785935  17790.306375    392.830254                    
V 22 -17985.283270  13402.590458 -17042.706982      0.037860                    
P 23  23426.357921  -1544.555694 -12664.241379   -134.120724                    
V 23  14553.550563   7521.503389  25232.943066     -0.021907                    
P 24 -15187.730324   2544.404686  21608.838442     -4.936602                    
V 24  -5769.000219 -26936.660761   -726.350478     -0.005857                    
P 25 -19363.783647  18008.772782  -1279.364171    -40.902980                    
V 25  -2700.550085   -806.732571  32202.839436     -0.051767                    
P 26   5544.889157  14915.869195 -21267.157943    -57.564568                    
V 26 -20676.890375  17371.706160   6799.398976     -0.112797                    
P 27  22998.550309  12063.095408  -5895.485486     20.940900                    
V 27  -7792.231380   -121.323907 -30667.364849      0.029917                    
P 28   7078.060588 -19464.217893  17203.187599    468.666457                    
V 28  17138.970142 -11518.673737 -20929.295844      0.027254                    
P 29 -15233.606144   8493.754261 -20007.142144    635.104940                    
V 29 -23174.514073 -10457.823487  13233.289790      0.021914                    
P 30    853.687116 -25904.295630  -5604.331159     27.223041                    
V 30   3817.228434   6726.441732 -30595.394465      0.065668                    
P 31   6954.164025  25069.056124  -4217.477416    302.289086                    
V 31  -1740.737062   5916.064221  31662.993031     -0.013345                    
P 32  20118.044563    342.315325  17010.384245    -38.777915                    
V 32 -16265.704135  14909.377992  19422.134042      0.111410                    
EOF
